{"type": "FeatureCollection", "features": [ {"type": "Feature", "properties": {"norad_id": 30435, "name": "FENGYUN 1C DEB", "group": "fengyun-1c-debris", "lat": -35.725468223606335, "lon": -9.241397332814453, "alt_km": 1037.2616225443326, "timestamp": "2025-12-24T11:33:00.293226+00:00", "meta": {"OBJECT_NAME": "FENGYUN 1C DEB", "OBJECT_ID": "1999-025AEW", "EPOCH": "2025-12-23T15:05:39.512256", "MEAN_MOTION": 13.79658294, "ECCENTRICITY": 0.02087038, "INCLINATION": 99.0177, "RA_OF_ASC_NODE": 343.3878, "ARG_OF_PERICENTER": 82.6974, "MEAN_ANOMALY": 332.2864, "EPHEMERIS_TYPE": 0, "CLASSIFICATION_TYPE": "U", "NORAD_CAT_ID": 30435, "ELEMENT_SET_NO": 999, "REV_AT_EPOCH": 94310, "BSTAR": 0.0014475056, "MEAN_MOTION_DOT": 1.72e-05, "MEAN_MOTION_DDOT": 0}, "tle": {"line1": "1 30435U 99025AEW 25357.62892954  .00001720  00000+0  14475-2 0  9999", "line2": "2 30435  99.0177 343.3878 0208703  82.6974 332.2864 13.79658294943101"}}, "geometry": {"type": "Point", "coordinates": [-9.241397332814453, -35.725468223606335]}}, {"type": "Feature", "properties": {"norad_id": 30436, "name": "FENGYUN 1C DEB", "group": "fengyun-1c-debris", "lat": 16.811490274154558, "lon": -110.59775704125678, "alt_km": 807.315743529326, "timestamp": "2025-12-24T11:33:00.293236+00:00", "meta": {"OBJECT_NAME": "FENGYUN 1C DEB", "OBJECT_ID": "1999-025AEX", "EPOCH": "2025-12-24T03:45:52.524288", "MEAN_MOTION": 14.22385436, "ECCENTRICITY": 0.0098305, "INCLINATION": 98.4264, "RA_OF_ASC_NODE": 251.659, "ARG_OF_PERICENTER": 100.096, "MEAN_ANOMALY": 57.9773, "EPHEMERIS_TYPE": 0, "CLASSIFICATION_TYPE": "U", "NORAD_CAT_ID": 30436, "ELEMENT_SET_NO": 999, "REV_AT_EPOCH": 96599, "BSTAR": 0.0020954, "MEAN_MOTION_DOT": 4.862e-05, "MEAN_MOTION_DDOT": 0}, "tle": {"line1": "1 30436U 99025AEX 25358.15685792  .00004862  00000+0  20954-2 0  9998", "line2": "2 30436  98.4264 251.6590 0098305 100.0960  57.9773 14.22385436965994"}}, "geometry": {"type": "Point", "coordinates": [-110.59775704125678, 16.811490274154558]}}, {"type": "Feature", "properties": {"norad_id": 30437, "name": "FENGYUN 1C DEB", "group": "fengyun-1c-debris", "lat": 6.445231150837437, "lon": 18.689848177897503, "alt_km": 591.9828088476825, "timestamp": "2025-12-24T11:33:00.293247+00:00", "meta": {"OBJECT_NAME": "FENGYUN 1C DEB", "OBJECT_ID": "1999-025AEY", "EPOCH": "2025-12-24T00:29:12.109056", "MEAN_MOTION": 14.88475475, "ECCENTRICITY": 0.00354, "INCLINATION": 98.9204, "RA_OF_ASC_NODE": 19.1881, "ARG_OF_PERICENTER": 67.1702, "MEAN_ANOMALY": 351.1407, "EPHEMERIS_TYPE": 0, "CLASSIFICATION_TYPE": "U", "NORAD_CAT_ID": 30437, "ELEMENT_SET_NO": 999, "REV_AT_EPOCH": 99355, "BSTAR": 0.0023114, "MEAN_MOTION_DOT": 0.00021706, "MEAN_MOTION_DDOT": 0}, "tle": {"line1": "1 30437U 99025AEY 25358.02027904  .00021706  00000+0  23114-2 0  9997", "line2": "2 30437  98.9204  19.1881 0035400  67.1702 351.1407 14.88475475993559"}}, "geometry": {"type": "Point", "coordinates": [18.689848177897503, 6.445231150837437]}}, {"type": "Feature", "properties": {"norad_id": 30438, "name": "FENGYUN 1C DEB", "group": "fengyun-1c-debris", "lat": 75.39698578661945, "lon": -21.382099949654386, "alt_km": 889.4571667895143, "timestamp": "2025-12-24T11:33:00.293257+00:00", "meta": {"OBJECT_NAME": "FENGYUN 1C DEB", "OBJECT_ID": "1999-025AEZ", "EPOCH": "2025-12-22T00:31:24.750336", "MEAN_MOTION": 13.92130582, "ECCENTRICITY": 0.01348933, "INCLINATION": 98.7502, "RA_OF_ASC_NODE": 12.5335, "ARG_OF_PERICENTER": 161.3823, "MEAN_ANOMALY": 199.2342, "EPHEMERIS_TYPE": 0, "CLASSIFICATION_TYPE": "U", "NORAD_CAT_ID": 30438, "ELEMENT_SET_NO": 999, "REV_AT_EPOCH": 95435, "BSTAR": 0.0010275015, "MEAN_MOTION_DOT": 1.376e-05, "MEAN_MOTION_DDOT": 0}, "tle": {"line1": "1 30438U 99025AEZ 25356.02181424  .00001376  00000+0  10275-2 0  9999", "line2": "2 30438  98.7502  12.5335 0134893 161.3823 199.2342 13.92130582954352"}}, "geometry": {"type": "Point", "coordinates": [-21.382099949654386, 75.39698578661945]}}, {"type": "Feature", "properties": {"norad_id": 30439, "name": "FENGYUN 1C DEB", "group": "fengyun-1c-debris", "lat": -5.459127265019509, "lon": 10.69458427678526, "alt_km": 849.5024389242672, "timestamp": "2025-12-24T11:33:00.293267+00:00", "meta": {"OBJECT_NAME": "FENGYUN 1C DEB", "OBJECT_ID": "1999-025AFA", "EPOCH": "2025-12-23T23:54:04.805280", "MEAN_MOTION": 14.08858683, "ECCENTRICITY": 0.0038342, "INCLINATION": 98.7496, "RA_OF_ASC_NODE": 9.3802, "ARG_OF_PERICENTER": 304.4766, "MEAN_ANOMALY": 109.429, "EPHEMERIS_TYPE": 0, "CLASSIFICATION_TYPE": "U", "NORAD_CAT_ID": 30439, "ELEMENT_SET_NO": 999, "REV_AT_EPOCH": 96950, "BSTAR": 0.0004461, "MEAN_MOTION_DOT": 7.33e-06, "MEAN_MOTION_DDOT": 0}, "tle": {"line1": "1 30439U 99025AFA 25357.99588895  .00000733  00000+0  44610-3 0  9997", "line2": "2 30439  98.7496   9.3802 0038342 304.4766 109.4290 14.08858683969501"}}, "geometry": {"type": "Point", "coordinates": [10.69458427678526, -5.459127265019509]}}, {"type": "Feature", "properties": {"norad_id": 30441, "name": "FENGYUN 1C DEB", "group": "fengyun-1c-debris", "lat": 53.24927907076237, "lon": -80.15555603988051, "alt_km": 990.0383135418242, "timestamp": "2025-12-24T11:33:00.293277+00:00", "meta": {"OBJECT_NAME": "FENGYUN 1C DEB", "OBJECT_ID": "1999-025AFC", "EPOCH": "2025-12-23T05:17:36.871296", "MEAN_MOTION": 13.77691815, "ECCENTRICITY": 0.01842984, "INCLINATION": 99.134, "RA_OF_ASC_NODE": 86.1903, "ARG_OF_PERICENTER": 229.8576, "MEAN_ANOMALY": 128.6307, "EPHEMERIS_TYPE": 0, "CLASSIFICATION_TYPE": "U", "NORAD_CAT_ID": 30441, "ELEMENT_SET_NO": 999, "REV_AT_EPOCH": 95014, "BSTAR": 0.00055584371, "MEAN_MOTION_DOT": 5.86e-06, "MEAN_MOTION_DDOT": 0}, "tle": {"line1": "1 30441U 99025AFC 25357.22056564  .00000586  00000+0  55584-3 0  9997", "line2": "2 30441  99.1340  86.1903 0184298 229.8576 128.6307 13.77691815950142"}}, "geometry": {"type": "Point", "coordinates": [-80.15555603988051, 53.24927907076237]}}, {"type": "Feature", "properties": {"norad_id": 30442, "name": "FENGYUN 1C DEB", "group": "fengyun-1c-debris", "lat": 11.90018042201179, "lon": -85.84731490473233, "alt_km": 793.8323448272249, "timestamp": "2025-12-24T11:33:00.293287+00:00", "meta": {"OBJECT_NAME": "FENGYUN 1C DEB", "OBJECT_ID": "1999-025AFD", "EPOCH": "2025-12-22T04:58:33.552192", "MEAN_MOTION": 14.28699815, "ECCENTRICITY": 0.00557419, "INCLINATION": 98.8668, "RA_OF_ASC_NODE": 89.957, "ARG_OF_PERICENTER": 259.8714, "MEAN_ANOMALY": 99.6176, "EPHEMERIS_TYPE": 0, "CLASSIFICATION_TYPE": "U", "NORAD_CAT_ID": 30442, "ELEMENT_SET_NO": 999, "REV_AT_EPOCH": 97297, "BSTAR": 0.0021302255, "MEAN_MOTION_DOT": 5.405e-05, "MEAN_MOTION_DDOT": 0}, "tle": {"line1": "1 30442U 99025AFD 25356.20733278  .00005405  00000+0  21302-2 0  9994", "line2": "2 30442  98.8668  89.9570 0055741 259.8714  99.6176 14.28699815972971"}}, "geometry": {"type": "Point", "coordinates": [-85.84731490473233, 11.90018042201179]}}, {"type": "Feature", "properties": {"norad_id": 30443, "name": "FENGYUN 1C DEB", "group": "fengyun-1c-debris", "lat": -39.45113703763751, "lon": -46.71074133711625, "alt_km": 756.5583639881061, "timestamp": "2025-12-24T11:33:00.293298+00:00", "meta": {"OBJECT_NAME": "FENGYUN 1C DEB", "OBJECT_ID": "1999-025AFE", "EPOCH": "2025-12-24T03:22:45.672960", "MEAN_MOTION": 14.36939668, "ECCENTRICITY": 0.0026734, "INCLINATION": 98.8497, "RA_OF_ASC_NODE": 305.5734, "ARG_OF_PERICENTER": 306.5253, "MEAN_ANOMALY": 53.3471, "EPHEMERIS_TYPE": 0, "CLASSIFICATION_TYPE": "U", "NORAD_CAT_ID": 30443, "ELEMENT_SET_NO": 999, "REV_AT_EPOCH": 97597, "BSTAR": 0.0023631, "MEAN_MOTION_DOT": 6.985e-05, "MEAN_MOTION_DDOT": 0}, "tle": {"line1": "1 30443U 99025AFE 25358.14080640  .00006985  00000+0  23631-2 0  9999", "line2": "2 30443  98.8497 305.5734 0026734 306.5253  53.3471 14.36939668975979"}}, "geometry": {"type": "Point", "coordinates": [-46.71074133711625, -39.45113703763751]}}, {"type": "Feature", "properties": {"norad_id": 30445, "name": "FENGYUN 1C DEB", "group": "fengyun-1c-debris", "lat": 80.19157901476723, "lon": -113.76446199358074, "alt_km": 737.6922634634357, "timestamp": "2025-12-24T11:33:00.293308+00:00", "meta": {"OBJECT_NAME": "FENGYUN 1C DEB", "OBJECT_ID": "1999-025AFG", "EPOCH": "2025-12-23T10:17:51.424224", "MEAN_MOTION": 14.48805549, "ECCENTRICITY": 0.01052864, "INCLINATION": 98.8372, "RA_OF_ASC_NODE": 309.2786, "ARG_OF_PERICENTER": 346.3006, "MEAN_ANOMALY": 13.5334, "EPHEMERIS_TYPE": 0, "CLASSIFICATION_TYPE": "U", "NORAD_CAT_ID": 30445, "ELEMENT_SET_NO": 999, "REV_AT_EPOCH": 99339, "BSTAR": 0.00077750359, "MEAN_MOTION_DOT": 3.097e-05, "MEAN_MOTION_DDOT": 0}, "tle": {"line1": "1 30445U 99025AFG 25357.42906741  .00003097  00000+0  77750-3 0  9993", "line2": "2 30445  98.8372 309.2786 0105286 346.3006  13.5334 14.48805549993394"}}, "geometry": {"type": "Point", "coordinates": [-113.76446199358074, 80.19157901476723]}}, {"type": "Feature", "properties": {"norad_id": 30446, "name": "FENGYUN 1C DEB", "group": "fengyun-1c-debris", "lat": 54.362472837214256, "lon": 68.93723194519794, "alt_km": 713.3145185373942, "timestamp": "2025-12-24T11:33:00.293319+00:00", "meta": {"OBJECT_NAME": "FENGYUN 1C DEB", "OBJECT_ID": "1999-025AFH", "EPOCH": "2025-12-23T12:01:40.522080", "MEAN_MOTION": 14.44837289, "ECCENTRICITY": 0.00340779, "INCLINATION": 98.6132, "RA_OF_ASC_NODE": 80.1495, "ARG_OF_PERICENTER": 66.153, "MEAN_ANOMALY": 294.3226, "EPHEMERIS_TYPE": 0, "CLASSIFICATION_TYPE": "U", "NORAD_CAT_ID": 30446, "ELEMENT_SET_NO": 999, "REV_AT_EPOCH": 98332, "BSTAR": 0.0016315448, "MEAN_MOTION_DOT": 5.672e-05, "MEAN_MOTION_DDOT": 0}, "tle": {"line1": "1 30446U 99025AFH 25357.50116345  .00005672  00000+0  16315-2 0  9996", "line2": "2 30446  98.6132  80.1495 0034077  66.1530 294.3226 14.44837289983320"}}, "geometry": {"type": "Point", "coordinates": [68.93723194519794, 54.362472837214256]}}]}